NORAD_CAT_ID,OBJECT_NAME,OBJECT_TYPE,EPOCH,MEAN_MOTION,ECCENTRICITY,INCLINATION,RA_OF_ASC_NODE,ARG_OF_PERICENTER,MEAN_ANOMALY,BSTAR,MEAN_MOTION_DOT,MEAN_MOTION_DDOT,TLE_LINE0,TLE_LINE1,TLE_LINE2,SEMIMAJOR_AXIS,PERIOD,APOGEE,PERIGEE,DECAYED
51128.0,STARLINK-3400,PAYLOAD,2022-11-13 08:13:44,15.08853491,0.0002305,53.2151,341.5729,44.3609,315.7567,0.00029574,4.423e-05,0.0,0 STARLINK-3400,1 51128U 22005AA  22317.34288097  .00004423  00000-0  29574-3 0  9995,2 51128  53.2151 341.5729 0002305  44.3609 315.7567 15.08853491 46821,6917.839,95.437,541.299,538.11,0.0
51128.0,STARLINK-3400,PAYLOAD,2022-11-14 08:04:32,15.08840504,0.0002389,53.2163,337.1112,41.8127,318.3047,0.00078635,0.00012249,0.0,0 STARLINK-3400,1 51128U 22005AA  22318.33649175  .00012249  00000-0  78635-3 0  9990,2 51128  53.2163 337.1112 0002389  41.8127 318.3047 15.08840504 46979,6917.879,95.438,541.3969999999998,538.091,0.0
51128.0,STARLINK-3400,PAYLOAD,2022-11-14 11:15:19,15.08841904,0.0002329,53.2154,336.5173,39.4073,320.7088,0.00088072,0.00013757,0.0,0 STARLINK-3400,1 51128U 22005AA  22318.46897253  .00013757  00000-0  88072-3 0  9997,2 51128  53.2154 336.5173 0002329  39.4073 320.7088 15.08841904 45871,6917.875,95.437,541.351,538.128,0.0
51128.0,STARLINK-3400,PAYLOAD,2022-11-15 04:44:33,15.08852121,0.0002353,53.2158,333.2459,40.6345,319.4822,0.00064283,9.961e-05,0.0,0 STARLINK-3400,1 51128U 22005AA  22319.19761017  .00009961  00000-0  64283-3 0  9996,2 51128  53.2158 333.2459 0002353  40.6345 319.4822 15.08852121 47101,6917.843000000003,95.437,541.336,538.081,0.0
51128.0,STARLINK-3400,PAYLOAD,2022-11-15 11:06:06,15.08844715,0.0002378,53.216,332.0574,39.3973,320.7192,0.00020012,2.898e-05,0.0,0 STARLINK-3400,1 51128U 22005AA  22319.46257046  .00002898  00000-0  20012-3 0  9992,2 51128  53.2160 332.0574 0002378  39.3973 320.7192 15.08844715 47147,6917.866,95.437,541.376,538.086,0.0
51128.0,STARLINK-3400,PAYLOAD,2022-11-16 01:24:34,15.08836364,0.0002383,53.2156,329.3807,41.9713,318.1462,6.2777e-06,-1.88e-06,0.0,0 STARLINK-3400,1 51128U 22005AA  22320.05873361 -.00000188  00000-0  62777-5 0  9990,2 51128  53.2156 329.3807 0002383  41.9713 318.1462 15.08836364 47239,6917.892,95.438,541.405,538.1080000000002,0.0
51128.0,STARLINK-3400,PAYLOAD,2022-11-16 09:21:30,15.08842384,0.0002396,53.2156,327.8938,39.8853,320.2315,0.00016668,2.366e-05,0.0,0 STARLINK-3400,1 51128U 22005AA  22320.38993242  .00002366  00000-0  16668-3 0  9992,2 51128  53.2156 327.8938 0002396  39.8853 320.2315 15.08842384 46163,6917.873000000001,95.437,541.396,538.081,0.0
51128.0,STARLINK-3400,PAYLOAD,2022-11-16 17:18:25,15.08849332,0.0002418,53.2158,326.407,39.8763,320.2406,0.00018095,2.593e-05,0.0,0 STARLINK-3400,1 51128U 22005AA  22320.72112774  .00002593  00000-0  18095-3 0  9991,2 51128  53.2158 326.4070 0002418  39.8763 320.2406 15.08849332 47333,6917.852,95.437,541.39,538.044,0.0
51128.0,STARLINK-3400,PAYLOAD,2022-11-17 01:15:21,15.08841992,0.000231,53.2172,324.9239,48.6199,311.4992,0.00014843,2.075e-05,0.0,0 STARLINK-3400,1 51128U 22005AA  22321.05233273  .00002075  00000-0  14843-3 0  9998,2 51128  53.2172 324.9239 0002310  48.6199 311.4992 15.08841992 47382,6917.874,95.437,541.337,538.141,0.0
51128.0,STARLINK-3400,PAYLOAD,2022-11-17 10:47:40,15.08842403,0.0002291,53.2162,323.136,40.842,319.2743,0.00010003,1.304e-05,0.0,0 STARLINK-3400,1 51128U 22005AA  22321.44976959  .00001304  00000-0  10003-3 0  9994,2 51128  53.2162 323.1360 0002291  40.8420 319.2743 15.08842403 46327,6917.873000000001,95.437,541.323,538.153,0.0
51128.0,STARLINK-3400,PAYLOAD,2022-11-18 01:06:08,15.0883717,0.0002319,53.2164,320.4591,40.0417,320.0746,-1.1359e-05,-4.69e-06,0.0,0 STARLINK-3400,1 51128U 22005AA  22322.04593264 -.00000469  00000-0 -11359-4 0  9994,2 51128  53.2164 320.4591 0002319  40.0417 320.0746 15.08837170 47536,6917.889,95.438,541.3580000000002,538.15,0.0
51128.0,STARLINK-3400,PAYLOAD,2022-11-18 09:03:04,15.08840692,0.0002337,53.2161,318.972,40.309,319.8075,3.9361e-05,3.38e-06,0.0,0 STARLINK-3400,1 51128U 22005AA  22322.37713098  .00000338  00000-0  39361-4 0  9995,2 51128  53.2161 318.9720 0002337  40.3090 319.8075 15.08840692 46464,6917.878000000002,95.438,541.36,538.127,0.0
51128.0,STARLINK-3400,PAYLOAD,2022-11-18 16:59:59,15.08847047,0.0002385,53.2158,317.4852,39.7335,320.3832,0.00011523,1.546e-05,0.0,0 STARLINK-3400,1 51128U 22005AA  22322.70832809  .00001546  00000-0  11523-3 0  9995,2 51128  53.2158 317.4852 0002385  39.7335 320.3832 15.08847047 47636,6917.859,95.437,541.374,538.0740000000002,0.0
51128.0,STARLINK-3400,PAYLOAD,2022-11-19 08:53:50,15.0884726,0.0002234,53.2148,314.5117,38.6912,321.4240000000001,0.00015944,2.251e-05,0.0,0 STARLINK-3400,1 51128U 22005AA  22323.37072693  .00002251  00000-0  15944-3 0  9991,2 51128  53.2148 314.5117 0002234  38.6912 321.4240 15.08847260 46618,6917.858,95.437,541.269,538.178,0.0
51128.0,STARLINK-3400,PAYLOAD,2022-11-19 12:04:37,15.08842539,0.0002316,53.2157,313.9161,39.8229,320.2933,6.8067e-05,7.95e-06,0.0,0 STARLINK-3400,1 51128U 22005AA  22323.50320882  .00000795  00000-0  68067-4 0  9998,2 51128  53.2157 313.9161 0002316  39.8229 320.2933 15.08842539 47751,6917.873000000001,95.437,541.34,538.135,0.0
51128.0,STARLINK-3400,PAYLOAD,2022-11-19 16:50:46,15.08849174,0.0002233,53.2161,313.0242,37.209,322.9057,0.00015744,2.219e-05,0.0,0 STARLINK-3400,1 51128U 22005AA  22323.70192436  .00002219  00000-0  15744-3 0  9998,2 51128  53.2161 313.0242 0002233  37.2090 322.9057 15.08849174 46660,6917.852,95.437,541.262,538.173,0.0
51128.0,STARLINK-3400,PAYLOAD,2022-11-20 08:44:38,15.08841485,0.0002367,53.2147,310.0515,40.4597,319.6571,6.7222e-05,7.82e-06,0.0,0 STARLINK-3400,1 51128U 22005AA  22324.36432930  .00000782  00000-0  67222-4 0  9999,2 51128  53.2147 310.0515 0002367  40.4597 319.6571 15.08841485 46762,6917.876,95.437,541.378,538.1030000000002,0.0
51128.0,STARLINK-3400,PAYLOAD,2022-11-21 05:24:38,15.08844427,0.0002236,53.2165,306.1834,42.9362,317.1805,3.5529e-05,2.77e-06,0.0,0 STARLINK-3400,1 51128U 22005AA  22325.22544718  .00000277  00000-0  35529-4 0  9997,2 51128  53.2165 306.1834 0002236  42.9362 317.1805 15.08844427 48016,6917.8669999999975,95.437,541.279,538.185,0.0
51128.0,STARLINK-3400,PAYLOAD,2022-11-21 10:10:48,15.08843137,0.0002248,53.2161,305.2921,41.2965,318.8197,8.1272e-05,1.006e-05,0.0,0 STARLINK-3400,1 51128U 22005AA  22325.42416697  .00001006  00000-0  81272-4 0  9990,2 51128  53.2161 305.2921 0002248  41.2965 318.8197 15.08843137 46920,6917.871,95.437,541.2909999999998,538.181,0.0
51128.0,STARLINK-3400,PAYLOAD,2022-11-22 05:15:28,15.0880495,0.0002119,53.216,301.7242,40.2652,319.8497,-0.00022212,-3.818e-05,0.0,0 STARLINK-3400,1 51128U 22005AA  22326.21908080 -.00003818  00000-0 -22212-3 0  9993,2 51128  53.2160 301.7242 0002119  40.2652 319.8497 15.08804950 48167,6917.988,95.44,541.318,538.387,0.0
51128.0,STARLINK-3400,PAYLOAD,2022-11-22 10:01:38,15.08804975,0.0002145,53.2161,300.8323,40.0719,320.0431,-0.00021527,-3.709e-05,0.0,0 STARLINK-3400,1 51128U 22005AA  22326.41780433 -.00003709  00000-0 -21527-3 0  9992,2 51128  53.2161 300.8323 0002145  40.0719 320.0431 15.08804975 47077,6917.986999999999,95.44,541.336,538.369,0.0
51128.0,STARLINK-3400,PAYLOAD,2022-11-23 03:30:51,15.08833459,0.0002198,53.2161,297.5606,41.5753,318.5406,5.7964e-05,6.34e-06,0.0,0 STARLINK-3400,1 51128U 22005AA  22327.14642561  .00000634  00000-0  57964-4 0  9999,2 51128  53.2161 297.5606 0002198  41.5753 318.5406 15.08833459 48305,6917.9,95.438,541.286,538.245,0.0
51128.0,STARLINK-3400,PAYLOAD,2022-11-23 09:52:23,15.08838919,0.0002175,53.2162,296.3712,41.8787,318.2371,0.00010289,1.35e-05,0.0,0 STARLINK-3400,1 51128U 22005AA  22327.41138233  .00001350  00000-0  10289-3 0  9999,2 51128  53.2162 296.3712 0002175  41.8787 318.2371 15.08838919 47220,6917.884,95.438,541.253,538.244,0.0
51128.0,STARLINK-3400,PAYLOAD,2022-11-23 14:38:32,15.08844337,0.0002167,53.2158,295.4801,40.1207,319.9945,0.00013037,1.787e-05,0.0,0 STARLINK-3400,1 51128U 22005AA  22327.61009873  .00001787  00000-0  13037-3 0  9996,2 51128  53.2158 295.4801 0002167  40.1207 319.9945 15.08844337 48377,6917.8669999999975,95.437,541.231,538.2330000000002,0.0
51128.0,STARLINK-3400,PAYLOAD,2022-11-24 04:57:02,15.08819318,0.0001943,53.2163,292.8048,50.3944,309.7219,0.00033652,5.069e-05,0.0,0 STARLINK-3400,1 51128U 22005AA  22328.20627322  .00005069  00000-0  33652-3 0  9999,2 51128  53.2163 292.8048 0001943  50.3944 309.7219 15.08819318 48461,6917.944,95.439,541.153,538.464,0.0
51128.0,STARLINK-3400,PAYLOAD,2022-11-24 08:07:47,15.08836845,0.0002081,53.2162,292.2099,41.6543,318.4607,9.5567e-05,1.233e-05,0.0,0 STARLINK-3400,1 51128U 22005AA  22328.33874774  .00001233  00000-0  95567-4 0  9991,2 51128  53.2162 292.2099 0002081  41.6543 318.4607 15.08836845 48486,6917.89,95.438,541.195,538.315,0.0
51128.0,STARLINK-3400,PAYLOAD,2022-11-25 07:58:34,15.08842496,0.0001951,53.2156,287.748,39.9042,320.2093,3.8798e-05,3.29e-06,0.0,0 STARLINK-3400,1 51128U 22005AA  22329.33234892  .00000329  00000-0  38798-4 0  9991,2 51128  53.2156 287.7480 0001951  39.9042 320.2093 15.08842496 47513,6917.873000000001,95.437,541.087,538.388,0.0
51128.0,STARLINK-3400,PAYLOAD,2022-11-25 14:20:06,15.08848009,0.0001774,53.2156,286.5575,43.0387,317.0744,0.00012278,1.667e-05,0.0,0 STARLINK-3400,1 51128U 22005AA  22329.59730324  .00001667  00000-0  12278-3 0  9990,2 51128  53.2156 286.5575 0001774  43.0387 317.0744 15.08848009 48677,6917.856,95.437,540.948,538.494,0.0
51128.0,STARLINK-3400,PAYLOAD,2022-11-26 06:13:57,15.08848626,0.0001993,53.2153,283.5835,37.1426,322.9704,9.0256e-05,1.149e-05,0.0,0 STARLINK-3400,1 51128U 22005AA  22330.25969859  .00001149  00000-0  90256-4 0  9990,2 51128  53.2153 283.5835 0001993  37.1426 322.9704 15.08848626 47654,6917.854,95.437,541.0980000000002,538.34,0.0
